NORAD_CAT_ID,OBJECT_NAME,OBJECT_TYPE,EPOCH,MEAN_MOTION,ECCENTRICITY,INCLINATION,RA_OF_ASC_NODE,ARG_OF_PERICENTER,MEAN_ANOMALY,BSTAR,MEAN_MOTION_DOT,MEAN_MOTION_DDOT,TLE_LINE0,TLE_LINE1,TLE_LINE2,SEMIMAJOR_AXIS,PERIOD,APOGEE,PERIGEE,DECAYED
56767.0,STARLINK-6197,PAYLOAD,2024-08-07 12:46:38,14.98329753,0.0003052,70.001,24.7698,270.4142,89.6667,2.1872e-05,1.68e-06,0.0,0 STARLINK-6197,1 56767U 23078A   24220.53239569  .00000168  00000-0  21872-4 0  9992,2 56767  70.0010  24.7698 0003052 270.4142  89.6667 14.98329753 65696,6950.194,96.107,574.18,569.937,0.0
56767.0,STARLINK-6197,PAYLOAD,2024-08-07 20:47:19,14.98332235,0.0003069,70.0011,23.9285,271.3736,88.7071,4.4692e-05,4.4e-06,0.0,0 STARLINK-6197,1 56767U 23078A   24220.86619370  .00000440  00000-0  44692-4 0  9998,2 56767  70.0011  23.9285 0003069 271.3736  88.7071 14.98332235 65482,6950.186,96.107,574.184,569.918,0.0
56767.0,STARLINK-6197,PAYLOAD,2024-08-08 14:24:48,14.9832545,0.0002905,70.0015,22.0761,270.9689,89.1137,0.0001245,1.393e-05,0.0,0 STARLINK-6197,1 56767U 23078A   24221.60055847  .00001393  00000-0  12450-3 0  9998,2 56767  70.0015  22.0761 0002905 270.9689  89.1137 14.98325450 65596,6950.207,96.107,574.091,570.053,0.0
56767.0,STARLINK-6197,PAYLOAD,2024-08-08 20:49:20,14.98326255,0.0002978,70.0013,21.4023,269.7479,90.3339,-1.671e-05,-2.92e-06,0.0,0 STARLINK-6197,1 56767U 23078A   24221.86760074 -.00000292  00000-0 -16710-4 0  9994,2 56767  70.0013  21.4023 0002978 269.7479  90.3339 14.98326255 65896,6950.204,96.107,574.139,570.0,0.0
56767.0,STARLINK-6197,PAYLOAD,2024-08-09 12:50:40,14.98333563,0.0003079,70.001,19.7193,269.4738,90.6068,0.00011058,1.227e-05,0.0,0 STARLINK-6197,1 56767U 23078A   24222.53519413  .00001227  00000-0  11058-3 0  9994,2 56767  70.0010  19.7193 0003079 269.4738  90.6068 14.98333563 65992,6950.182,96.107,574.187,569.907,0.0
56767.0,STARLINK-6197,PAYLOAD,2024-08-09 14:26:48,14.98333962,0.0003076,70.0011,19.5509,269.6028,90.4778,0.00011522,1.282e-05,0.0,0 STARLINK-6197,1 56767U 23078A   24222.60195381  .00001282  00000-0  11522-3 0  9993,2 56767  70.0011  19.5509 0003076 269.6028  90.4778 14.98333962 65745,6950.181,96.107,574.184,569.908,0.0
56767.0,STARLINK-6197,PAYLOAD,2024-08-09 19:15:12,14.98342113,0.0002986,70.0014,19.0462,269.7352,90.3465,0.00021223,2.441e-05,0.0,0 STARLINK-6197,1 56767U 23078A   24222.80222631  .00002441  00000-0  21223-3 0  9991,2 56767  70.0014  19.0462 0002986 269.7352  90.3465 14.98342113 66034,6950.155,96.106,574.096,569.945,0.0
56767.0,STARLINK-6197,PAYLOAD,2024-08-09 20:51:20,14.98345118,0.0002986,70.0014,18.8776,270.3727,89.7089,0.00025014,2.894e-05,0.0,0 STARLINK-6197,1 56767U 23078A   24222.86898408  .00002894  00000-0  25014-3 0  9992,2 56767  70.0014  18.8776 0002986 270.3727  89.7089 14.98345118 65786,6950.146,96.106,574.086,569.936,0.0
56767.0,STARLINK-6197,PAYLOAD,2024-08-10 12:52:41,14.98330855,0.0003047,70.001,17.1941,270.4924,89.5886,7.3933e-05,7.89e-06,0.0,0 STARLINK-6197,1 56767U 23078A   24223.53659636  .00000789  00000-0  73933-4 0  9990,2 56767  70.0010  17.1941 0003047 270.4924  89.5886 14.98330855 66143,6950.19,96.107,574.173,569.938,0.0
56767.0,STARLINK-6197,PAYLOAD,2024-08-10 14:28:49,14.98330394,0.0002613,70.0032,17.03,257.2305,102.8562,0.00010765,1.192e-05,0.0,0 STARLINK-6197,1 56767U 23078A   24223.60335639  .00001192  00000-0  10765-3 0  9994,2 56767  70.0032  17.0300 0002613 257.2305 102.8562 14.98330394 65898,6950.192,96.107,573.873,570.241,0.0
56767.0,STARLINK-6197,PAYLOAD,2024-08-10 20:53:21,14.98337852,0.0002829,70.0016,16.3528,264.6487,95.4349,0.00019256,2.206e-05,0.0,0 STARLINK-6197,1 56767U 23078A   24223.87038966  .00002206  00000-0  19256-3 0  9997,2 56767  70.0016  16.3528 0002829 264.6487  95.4349 14.98337852 65937,6950.169,96.106,574.0,570.067,0.0
56767.0,STARLINK-6197,PAYLOAD,2024-08-11 20:55:21,14.98352086,0.0002429,70.0042,13.8288,262.4132,97.6751,0.0003278,3.823e-05,0.0,0 STARLINK-6197,1 56767U 23078A   24224.87177905  .00003823  00000-0  32780-3 0  9998,2 56767  70.0042  13.8288 0002429 262.4132  97.6751 14.98352086 66084,6950.125,96.106,573.678,570.301,0.0
56767.0,STARLINK-6197,PAYLOAD,2024-08-12 03:19:54,14.98338741,0.0002264,70.0033,13.1557,275.9994,84.0907,-3.6391e-05,-5.27e-06,0.0,0 STARLINK-6197,1 56767U 23078A   24225.13882518 -.00000527  00000-0 -36391-4 0  9994,2 56767  70.0033  13.1557 0002264 275.9994  84.0907 14.98338741 66386,6950.166,96.106,573.604,570.457,0.0
56767.0,STARLINK-6197,PAYLOAD,2024-08-12 09:44:26,14.98328767,0.0003041,70.0025,12.4808,271.5134,88.5677,-0.00010675,-1.366e-05,0.0,0 STARLINK-6197,1 56767U 23078A   24225.40586732 -.00001366  00000-0 -10675-3 0  9991,2 56767  70.0025  12.4808 0003041 271.5134  88.5677 14.98328767 66425,6950.197,96.107,574.175,569.948,0.0
56767.0,STARLINK-6197,PAYLOAD,2024-08-12 19:21:13,14.98362749,0.0001068,70.0035,11.4717,265.9682,94.1355,0.00056796,6.696e-05,0.0,0 STARLINK-6197,1 56767U 23078A   24225.80640913  .00006696  00000-0  56796-3 0  9990,2 56767  70.0035  11.4717 0001068 265.9682  94.1355 14.98362749 66486,6950.092,96.105,572.699,571.214,0.0
56767.0,STARLINK-6197,PAYLOAD,2024-08-13 03:21:54,14.98330735,0.0001417,70.0048,10.631,298.5893,61.5124,-0.00027845,-3.413e-05,0.0,0 STARLINK-6197,1 56767U 23078A   24226.14021970 -.00003413  00000-0 -27845-3 0  9993,2 56767  70.0048  10.6310 0001417 298.5893  61.5124 14.98330735 66532,6950.191,96.107,573.04,571.071,0.0
56767.0,STARLINK-6197,PAYLOAD,2024-08-13 09:46:28,14.98275335,0.0002936,69.999,9.9568,273.7214,86.361,-0.001639,-0.00019567,0.0,0 STARLINK-6197,1 56767U 23078A   24226.40727829 -.00019567  00000-0 -16390-2 0  9997,2 56767  69.9990   9.9568 0002936 273.7214  86.3610 14.98275335 66573,6950.362,96.111,574.268,570.186,0.0
56767.0,STARLINK-6197,PAYLOAD,2024-08-13 19:23:18,14.98272501,0.0002804,70.0037,8.9462,274.1854,85.8985,-0.0013033,-0.00015586,0.0,0 STARLINK-6197,1 56767U 23078A   24226.80785195 -.00015586  00000-0 -13033-2 0  9999,2 56767  70.0037   8.9462 0002804 274.1854  85.8985 14.98272501 66378,6950.371,96.111,574.185,570.287,0.0
56767.0,STARLINK-6197,PAYLOAD,2024-08-14 03:23:58,14.98302401,0.0003513,70.0021,8.1036,273.6345,86.4413,-0.00018778,-2.331e-05,0.0,0 STARLINK-6197,1 56767U 23078A   24227.14164699 -.00002331  00000-0 -18778-3 0  9993,2 56767  70.0021   8.1036 0003513 273.6345  86.4413 14.98302401 66687,6950.278,96.109,574.585,569.702,0.0
56767.0,STARLINK-6197,PAYLOAD,2024-08-14 13:00:46,14.9832856,0.0002958,70.0017,7.0939,277.5962,82.4861,0.00067503,7.97e-05,0.0,0 STARLINK-6197,1 56767U 23078A   24227.54220422  .00007970  00000-0  67503-3 0  9996,2 56767  70.0017   7.0939 0002958 277.5962  82.4861 14.98328560 66746,6950.197,96.107,574.118,570.006,0.0
56767.0,STARLINK-6197,PAYLOAD,2024-08-14 14:36:54,14.98327806,0.0002966,70.0027,6.9265,280.0704,80.012,0.00066601,7.862e-05,0.0,0 STARLINK-6197,1 56767U 23078A   24227.60896571  .00007862  00000-0  66601-3 0  9995,2 56767  70.0027   6.9265 0002966 280.0704  80.0120 14.98327806 66495,6950.2,96.107,574.126,570.003,0.0
56767.0,STARLINK-6197,PAYLOAD,2024-08-14 19:25:19,14.98331452,0.0003002,70.0028,6.4219,280.2445,79.8376,0.0011356,0.00013483,0.0,0 STARLINK-6197,1 56767U 23078A   24227.80924877  .00013483  00000-0  11356-2 0  9990,2 56767  70.0028   6.4219 0003002 280.2445  79.8376 14.98331452 66521,6950.188,96.107,574.14,569.967,0.0
56767.0,STARLINK-6197,PAYLOAD,2024-08-15 09:50:31,14.98341141,0.0003106,70.0029,4.9068,282.8993,77.1819,0.0011296,0.00013415,0.0,0 STARLINK-6197,1 56767U 23078A   24228.41008811  .00013415  00000-0  11296-2 0  9997,2 56767  70.0029   4.9068 0003106 282.8993  77.1819 14.98341141 66617,6950.158,96.106,574.182,569.865,0.0
56767.0,STARLINK-6197,PAYLOAD,2024-08-15 16:15:03,14.98346528,0.0003072,70.0028,4.2336,283.8937,76.188,0.0011175,0.00013272,0.0,0 STARLINK-6197,1 56767U 23078A   24228.67712340  .00013272  00000-0  11175-2 0  9991,2 56767  70.0028   4.2336 0003072 283.8937  76.1880 14.98346528 66912,6950.142,96.106,574.142,569.872,0.0
56767.0,STARLINK-6197,PAYLOAD,2024-08-16 09:52:31,14.98344284,0.000299,70.0033,2.3821,286.1965,73.8865,-0.00010742,-1.375e-05,0.0,0 STARLINK-6197,1 56767U 23078A   24229.41147301 -.00001375  00000-0 -10742-3 0  9996,2 56767  70.0033   2.3821 0002990 286.1965  73.8865 14.98344284 67028,6950.149,96.106,574.092,569.936,0.0
56767.0,STARLINK-6197,PAYLOAD,2024-08-16 19:29:19,14.98347344,0.0002788,70.0035,1.3739,281.665,78.4196,6.0033e-05,6.24e-06,0.0,0 STARLINK-6197,1 56767U 23078A   24229.81202908  .00000624  00000-0  60033-4 0  9998,2 56767  70.0035   1.3739 0002788 281.6650  78.4196 14.98347344 66828,6950.139,96.106,573.942,570.067,0.0
56767.0,STARLINK-6197,PAYLOAD,2024-08-18 13:08:47,14.98346551,0.0002933,70.0044,356.9961,264.2759,95.8066,0.00040063,4.693e-05,0.0,0 STARLINK-6197,1 56767U 23078A   24231.54777715  .00004693  00000-0  40063-3 0  9994,2 56767  70.0044 356.9961 0002933 264.2759  95.8066 14.98346551 67349,6950.142,96.106,574.045,569.968,0.0
56767.0,STARLINK-6197,PAYLOAD,2024-08-18 17:57:11,14.98364923,0.0002816,70.0047,356.4927,265.5503,94.5334,0.00054147,6.379e-05,0.0,0 STARLINK-6197,1 56767U 23078A   24231.74804862  .00006379  00000-0  54147-3 0  9991,2 56767  70.0047 356.4927 0002816 265.5503  94.5334 14.98364923 67370,6950.085,96.105,573.907,569.993,0.0
56767.0,STARLINK-6197,PAYLOAD,2024-08-19 09:58:33,14.98329294,0.0003043,70.005,354.8101,269.0037,91.0774,-0.00016663,-2.081e-05,0.0,0 STARLINK-6197,1 56767U 23078A   24232.41566133 -.00002081  00000-0 -16663-3 0  9991,2 56767  70.0050 354.8101 0003043 269.0037  91.0774 14.98329294 67477,6950.195,96.107,574.175,569.945,0.0
56767.0,STARLINK-6197,PAYLOAD,2024-08-20 13:12:50,14.98327296,0.0003295,70.0047,351.9473,271.6049,88.4732,0.00056986,6.713e-05,0.0,0 STARLINK-6197,1 56767U 23078A   24233.55058861  .00006713  00000-0  56986-3 0  9997,2 56767  70.0047 351.9473 0003295 271.6049  88.4732 14.98327296 67647,6950.201,96.107,574.356,569.776,0.0
